0 THOR ABLESTAR DEB
1 00355U 61015DV  13282.83325703  .00000502  00000-0  98306-3 0  2004
2 00355 067.2244 354.2880 0266279 239.4145 241.9179 13.30714828532404
0 THOR ABLESTAR DEB
1 00355U 61015DV  13287.17014196  .00000702  00000-0  13302-2 0  2023
2 00355 067.2237 344.8881 0266252 236.4583 138.0274 13.30722295532988
0 THOR ABLESTAR DEB
1 00355U 61015DV  13289.52105358  .00000750  00000-0  14143-2 0  2033
2 00355 067.2234 339.7923 0266221 234.8702 240.2532 13.30727644533297
0 THOR ABLESTAR DEB
1 00355U 61015DV  13291.56117156  .00000771  00000-0  14511-2 0  2042
2 00355 067.2233 335.3702 0266156 233.4980 293.6225 13.30731657533563
0 THOR ABLESTAR DEB
1 00355U 61015DV  13294.10172521  .00000815  00000-0  15270-2 0  2055
2 00355 067.2233 329.8632 0266020 231.7814 224.4288 13.30736941533900
0 THOR ABLESTAR DEB
1 00355U 61015DV  13296.12451296  .00000831  00000-0  15549-2 0  2066
2 00355 067.2232 325.4786 0265878 230.4183 194.8460 13.30740963534177
